NORAD_CAT_ID,OBJECT_NAME,OBJECT_TYPE,EPOCH,MEAN_MOTION,ECCENTRICITY,INCLINATION,RA_OF_ASC_NODE,ARG_OF_PERICENTER,MEAN_ANOMALY,BSTAR,MEAN_MOTION_DOT,MEAN_MOTION_DDOT,TLE_LINE0,TLE_LINE1,TLE_LINE2,SEMIMAJOR_AXIS,PERIOD,APOGEE,PERIGEE,DECAYED
52342.0,STARLINK-3850,PAYLOAD,2023-06-11 08:54:07,15.08749443,0.0001592,53.2175,18.7148,117.3964,242.719,0.0013833,0.00021741,0.0,0 STARLINK-3850,1 52342U 22045M   23162.37091986  .00021741  00000-0  13833-2 0  9991,2 52342  53.2175  18.7148 0001592 117.3964 242.7190 15.08749443 64468,6918.157,95.443,541.124,538.921,0.0
52342.0,STARLINK-3850,PAYLOAD,2023-06-11 16:50:59,15.0884138,9.7e-05,53.2174,17.2276,94.6211,265.4891,5.1066e-05,5.25e-06,0.0,0 STARLINK-3850,1 52342U 22045M   23162.70208320  .00000525  00000-0  51066-4 0  9999,2 52342  53.2174  17.2276 0000970  94.6211 265.4891 15.08841380 64513,6917.876,95.437,540.412,539.07,0.0
52342.0,STARLINK-3850,PAYLOAD,2023-06-12 03:58:42,15.08831982,0.000132,53.2175,15.1461,51.6876,308.4234,-3.3558e-05,-8.22e-06,0.0,0 STARLINK-3850,1 52342U 22045M   23163.16577150 -.00000822  00000-0 -33558-4 0  9998,2 52342  53.2175  15.1461 0001320  51.6876 308.4234 15.08831982 64580,6917.905,95.438,540.683,538.857,0.0
52342.0,STARLINK-3850,PAYLOAD,2023-06-12 07:09:28,15.08831793,0.0001016,53.2176,14.5515,90.7507,269.3602,-2.6628e-05,-7.11e-06,0.0,0 STARLINK-3850,1 52342U 22045M   23163.29825059 -.00000711  00000-0 -26628-4 0  9993,2 52342  53.2176  14.5515 0001016  90.7507 269.3602 15.08831793 64608,6917.905,95.438,540.473,539.068,0.0
52342.0,STARLINK-3850,PAYLOAD,2023-06-12 23:03:19,15.08841649,9.43e-05,53.2175,11.577,86.8847,273.2252,0.00010873,1.443e-05,0.0,0 STARLINK-3850,1 52342U 22045M   23163.96064311  .00001443  00000-0  10873-3 0  9998,2 52342  53.2175  11.5770 0000943  86.8847 273.2252 15.08841649 64705,6917.875,95.437,540.393,539.088,0.0
52342.0,STARLINK-3850,PAYLOAD,2023-06-13 13:21:48,15.08839294,0.000102,53.2174,8.9011,87.8836,272.2273,7.8467e-05,9.61e-06,0.0,0 STARLINK-3850,1 52342U 22045M   23164.55680611  .00000961  00000-0  78467-4 0  9999,2 52342  53.2174   8.9011 0001020  87.8836 272.2273 15.08839294 64792,6917.883,95.438,540.453,539.042,0.0
52342.0,STARLINK-3850,PAYLOAD,2023-06-13 19:43:20,15.08846232,0.0001004,53.2174,7.7118,90.2281,269.8826,0.00014128,1.962e-05,0.0,0 STARLINK-3850,1 52342U 22045M   23164.82176067  .00001962  00000-0  14128-3 0  9999,2 52342  53.2174   7.7118 0001004  90.2281 269.8826 15.08846232 64832,6917.861,95.437,540.421,539.032,0.0
52342.0,STARLINK-3850,PAYLOAD,2023-06-14 13:12:35,15.08834927,0.0001061,53.2167,4.4413,91.5626,268.5487,0.000121,1.638e-05,0.0,0 STARLINK-3850,1 52342U 22045M   23165.55040777  .00001638  00000-0  12100-3 0  9996,2 52342  53.2167   4.4413 0001061  91.5626 268.5487 15.08834927 64945,6917.896,95.438,540.495,539.027,0.0
52342.0,STARLINK-3850,PAYLOAD,2023-06-14 19:34:07,15.08834439,9.78e-05,53.2172,3.2496,93.1087,267.0017,7.0062e-05,8.27e-06,0.0,0 STARLINK-3850,1 52342U 22045M   23165.81536972  .00000827  00000-0  70062-4 0  9993,2 52342  53.2172   3.2496 0000978  93.1087 267.0017 15.08834439 64989,6917.897,95.438,540.439,539.086,0.0
52342.0,STARLINK-3850,PAYLOAD,2023-06-15 08:17:12,15.08839931,9.72e-05,53.2178,0.8718,100.6235,259.4867,7.8175e-05,9.57e-06,0.0,0 STARLINK-3850,1 52342U 22045M   23166.34528645  .00000957  00000-0  78175-4 0  9997,2 52342  53.2178   0.8718 0000972 100.6235 259.4867 15.08839931 65068,6917.881,95.438,540.418,539.073,0.0
52342.0,STARLINK-3850,PAYLOAD,2023-06-15 19:24:54,15.0884429,9.77e-05,53.2177,358.7902,98.3821,261.7282,7.2076e-05,8.6e-06,0.0,0 STARLINK-3850,1 52342U 22045M   23166.80896379  .00000860  00000-0  72076-4 0  9997,2 52342  53.2177 358.7902 0000977  98.3821 261.7282 15.08844290 65135,6917.867,95.437,540.408,539.056,0.0
52342.0,STARLINK-3850,PAYLOAD,2023-06-16 12:54:08,15.08845304,0.000101,53.2175,355.5192,82.4005,277.7102,0.00018629,2.679e-05,0.0,0 STARLINK-3850,1 52342U 22045M   23167.53760029  .00002679  00000-0  18629-3 0  9993,2 52342  53.2175 355.5192 0001010  82.4005 277.7102 15.08845304 65243,6917.864,95.437,540.428,539.03,0.0
52342.0,STARLINK-3850,PAYLOAD,2023-06-16 19:15:40,15.08855036,0.0001033,53.2167,354.3294,84.3109,275.8001,0.00032722,4.926e-05,0.0,0 STARLINK-3850,1 52342U 22045M   23167.80255786  .00004926  00000-0  32722-3 0  9999,2 52342  53.2167 354.3294 0001033  84.3109 275.8001 15.08855036 65289,6917.834,95.437,540.414,538.985,0.0
52342.0,STARLINK-3850,PAYLOAD,2023-06-17 12:44:56,15.08832985,9.18e-05,53.2167,351.0588,71.6605,288.4487,-3.5804e-05,-8.57e-06,0.0,0 STARLINK-3850,1 52342U 22045M   23168.53121069 -.00000857  00000-0 -35804-4 0  9992,2 52342  53.2167 351.0588 0000918  71.6605 288.4487 15.08832985 65398,6917.902,95.438,540.402,539.132,0.0
52342.0,STARLINK-3850,PAYLOAD,2023-06-17 19:06:29,15.08828549,9.46e-05,53.2168,349.8689,94.2701,265.8399,-0.00017157,-3.016e-05,0.0,0 STARLINK-3850,1 52342U 22045M   23168.79617146 -.00003016  00000-0 -17157-3 0  9996,2 52342  53.2168 349.8689 0000946  94.2701 265.8399 15.08828549 65432,6917.915,95.438,540.435,539.126,0.0
52342.0,STARLINK-3850,PAYLOAD,2023-06-18 04:38:47,15.08836202,9.42e-05,53.217,348.0847,96.0219,264.0881,2.6344e-05,1.32e-06,0.0,0 STARLINK-3850,1 52342U 22045M   23169.19361083  .00000132  00000-0  26344-4 0  9990,2 52342  53.2170 348.0847 0000942  96.0219 264.0881 15.08836202 65490,6917.892,95.438,540.409,539.105,0.0
52342.0,STARLINK-3850,PAYLOAD,2023-06-18 12:35:43,15.08841735,8.97e-05,53.217,346.5978,96.7555,263.3539,0.00017516,2.501e-05,0.0,0 STARLINK-3850,1 52342U 22045M   23169.52481019  .00002501  00000-0  17516-3 0  9991,2 52342  53.2170 346.5978 0000897  96.7555 263.3539 15.08841735 65542,6917.875,95.437,540.361,539.12,0.0
52342.0,STARLINK-3850,PAYLOAD,2023-06-18 18:57:15,15.08849733,8.69e-05,53.2168,345.4088,102.2671,257.8419,0.00048149,7.385e-05,0.0,0 STARLINK-3850,1 52342U 22045M   23169.78976833  .00007385  00000-0  48149-3 0  9993,2 52342  53.2168 345.4088 0000869 102.2671 257.8419 15.08849733 65585,6917.851,95.437,540.317,539.114,0.0
52342.0,STARLINK-3850,PAYLOAD,2023-06-19 04:29:34,15.0884983,8.11e-05,53.2169,343.6246,102.1659,257.9424,0.00042913,6.55e-05,0.0,0 STARLINK-3850,1 52342U 22045M   23170.18720824  .00006550  00000-0  42913-3 0  9992,2 52342  53.2169 343.6246 0000811 102.1659 257.9424 15.08849830 65646,6917.85,95.437,540.276,539.154,0.0
52342.0,STARLINK-3850,PAYLOAD,2023-06-19 14:01:53,15.08839347,8.54e-05,53.2168,341.8404,102.3785,257.7302,-1.9415e-05,-5.97e-06,0.0,0 STARLINK-3850,1 52342U 22045M   23170.58465007 -.00000597  00000-0 -19415-4 0  9994,2 52342  53.2168 341.8404 0000854 102.3785 257.7302 15.08839347 65702,6917.882,95.438,540.338,539.157,0.0
52342.0,STARLINK-3850,PAYLOAD,2023-06-20 10:41:54,15.08839416,7.96e-05,53.2166,337.9748,96.2131,263.8952,2.8467e-05,1.65e-06,0.0,0 STARLINK-3850,1 52342U 22045M   23171.44577078  .00000165  00000-0  28467-4 0  9998,2 52342  53.2166 337.9748 0000796  96.2131 263.8952 15.08839416 65838,6917.882,95.438,540.298,539.197,0.0
52342.0,STARLINK-3850,PAYLOAD,2023-06-20 17:03:26,15.08842769,8.03e-05,53.2167,336.7857,94.6194,265.489,3.7734e-05,3.13e-06,0.0,0 STARLINK-3850,1 52342U 22045M   23171.71072901  .00000313  00000-0  37734-4 0  9995,2 52342  53.2167 336.7857 0000803  94.6194 265.4890 15.08842769 65875,6917.872,95.437,540.292,539.181,0.0
52342.0,STARLINK-3850,PAYLOAD,2023-06-20 20:14:12,15.08850433,8.03e-05,53.217,336.1909,93.7808,266.3276,0.00011704,1.576e-05,0.0,0 STARLINK-3850,1 52342U 22045M   23171.84320583  .00001576  00000-0  11704-3 0  9991,2 52342  53.2170 336.1909 0000803  93.7808 266.3276 15.08850433 65890,6917.848,95.437,540.269,539.158,0.0
52342.0,STARLINK-3850,PAYLOAD,2023-06-21 10:32:41,15.08837688,9.06e-05,53.2169,333.5132,118.6963,241.4121,7.8439e-05,9.61e-06,0.0,0 STARLINK-3850,1 52342U 22045M   23172.43937194  .00000961  00000-0  78439-4 0  9995,2 52342  53.2169 333.5132 0000906 118.6963 241.4121 15.08837688 65980,6917.887,95.438,540.379,539.126,0.0
52342.0,STARLINK-3850,PAYLOAD,2023-06-21 18:29:37,15.08846462,8.64e-05,53.2173,332.0273,91.2835,268.8256,0.00014053,1.95e-05,0.0,0 STARLINK-3850,1 52342U 22045M   23172.77056938  .00001950  00000-0  14053-3 0  9990,2 52342  53.2173 332.0273 0000864  91.2835 268.8256 15.08846462 66031,6917.861,95.437,540.323,539.128,0.0
52342.0,STARLINK-3850,PAYLOAD,2023-06-22 10:23:29,15.08836341,9.01e-05,53.2169,329.0545,91.2934,268.8161,9.9392e-05,1.294e-05,0.0,0 STARLINK-3850,1 52342U 22045M   23173.43297619  .00001294  00000-0  99392-4 0  9998,2 52342  53.2169 329.0545 0000901  91.2934 268.8161 15.08836341 66137,6917.892,95.438,540.38,539.133,0.0
52342.0,STARLINK-3850,PAYLOAD,2023-06-22 16:45:01,15.0884364,8.75e-05,53.2169,327.8646,95.2287,264.8805,0.00017777,2.543e-05,0.0,0 STARLINK-3850,1 52342U 22045M   23173.69793277  .00002543  00000-0  17777-3 0  9991,2 52342  53.2169 327.8646 0000875  95.2287 264.8805 15.08843640 66175,6917.869,95.437,540.34,539.129,0.0
52342.0,STARLINK-3850,PAYLOAD,2023-06-23 16:35:48,15.08845026,8.16e-05,53.2171,323.404,90.3719,269.7366,0.00014623,2.041e-05,0.0,0 STARLINK-3850,1 52342U 22045M   23174.69153281  .00002041  00000-0  14623-3 0  9997,2 52342  53.2171 323.4040 0000816  90.3719 269.7366 15.08845026 66322,6917.865,95.437,540.295,539.166,0.0
52342.0,STARLINK-3850,PAYLOAD,2023-06-24 16:26:35,15.08838425,7.88e-05,53.2173,318.9449,77.6387,282.4694,8.5432e-05,1.072e-05,0.0,0 STARLINK-3850,1 52342U 22045M   23175.68513633  .00001072  00000-0  85432-4 0  9998,2 52342  53.2173 318.9449 0000788  77.6387 282.4694 15.08838425 66470,6917.885,95.438,540.295,539.205,0.0
52342.0,STARLINK-3850,PAYLOAD,2023-06-26 01:49:41,15.08837979,9.57e-05,53.2175,312.7005,85.6227,274.4874,1.4942e-05,-5e-07,0.0,0 STARLINK-3850,1 52342U 22045M   23177.07617578 -.00000050  00000-0  14942-4 0  9990,2 52342  53.2175 312.7005 0000957  85.6227 274.4874 15.08837979 66689,6917.887,95.438,540.414,539.09,0.0
